satname,norad_id,inclination_deg,eccentricity,mean_motion_rev_per_day,perigee_km,apogee_km,l1,l2
STARLINK-1008,44714,53.1563,0.0001298,15.31068808,471.73296356044284,473.5114206467133,1 44714U 19074B   26037.17668061  .00009836  00000+0  33474-3 0  9993,2 44714  53.1563 325.3269 0001298  91.2362 268.8788 15.31068808344040
STARLINK-1012,44718,53.1587,0.0001176,15.30216445,474.36001962425416,475.97191648234093,1 44718U 19074F   26037.20512091  .00005413  00000+0  19464-3 0  9992,2 44718  53.1587 325.0508 0001176  83.0338 277.0796 15.30216445344042
STARLINK-1017,44723,53.0458,0.0003124,15.21615221,498.8190777647196,503.11714263757403,1 44723U 19074L   26037.16889798  .00034245  00000+0  15049-2 0  9993,2 44723  53.0458 316.5711 0003124 103.2946 256.8398 15.21615221344161
STARLINK-1019,44724,53.0487,0.001107,15.71990752,345.7564046548305,360.6596024927421,1 44724U 19074M   26037.91671296  .00116430  00000+0  86297-3 0  9990,2 44724  53.0487 290.4271 0011070  92.4944 149.6724 15.71990752  5954
STARLINK-1020,44725,53.057,0.0001368,15.06418952,546.2060936600719,548.1008531335929,1 44725U 19074N   26036.57275281  .00000678  00000+0  64409-4 0  9994,2 44725  53.0570 350.7994 0001368  94.8847 265.2299 15.06418952343623
STARLINK-1031,44736,53.0438,0.0006558,15.77711258,332.5232935956874,341.3307715808314,1 44736U 19074Z   26037.91671296  .00121537  00000+0  70374-3 0  9996,2 44736  53.0438 275.4293 0006558 122.9505 253.4509 15.77711258  5961
STARLINK-1036,44741,53.0559,0.0006085,15.49422174,414.27960098019867,422.5510051330184,1 44741U 19074AE  26037.00452786  .00113199  00000+0  20048-2 0  9990,2 44741  53.0559 341.1507 0006085 105.4658 254.7022 15.49422174343807
STARLINK-1039,44744,53.0504,0.0005994,15.18995652,504.7466259405519,513.0027755674164,1 44744U 19074AH  26036.59779101  .00077043  00000+0  36124-2 0  9998,2 44744  53.0504   2.2798 0005994  77.5939 282.5726 15.18995652343471
STARLINK-1042,44747,53.0432,0.0003572,15.48189635,419.59303848552645,424.45107211463255,1 44747U 19074AL  26037.81198931  .00025222  00000+0  47828-3 0  9999,2 44747  53.0432 242.7521 0003572  98.1139 262.0274 15.48189635345281
STARLINK-1043,44748,53.0553,0.000283,15.51535793,410.3197064676433,414.1630606327335,1 44748U 19074AM  26036.98657671  .00041371  00000+0  69124-3 0  9994,2 44748  53.0553 347.2044 0002830  45.9308 314.1933 15.51535793343723
STARLINK-1046,44751,53.0557,0.0007496,15.41587896,436.31041051176,446.53429389258235,1 44751U 19074AQ  26037.91671296  .00120693  00000+0  27899-2 0  9998,2 44751  53.0557 356.8178 0007496  83.5049  28.7669 15.41587896  5862
STARLINK-1047,44752,53.0704,0.0004981,15.31853228,466.87207046994445,473.69446674152823,1 44752U 19074AR  26037.83864576  .00013117  00000+0  43156-3 0  9992,2 44752  53.0704 290.0446 0004981 116.9424 243.2086 15.31853228344618
STARLINK-1048,44753,53.055,0.0005797,15.49673106,413.7420559387956,421.6211280143334,1 44753U 19074AS  26037.91671296  .00183262  00000+0  31838-2 0  9999,2 44753  53.0550 316.7192 0005797  96.5557 280.8032 15.49673106  5849
STARLINK-1053,44758,53.0316,0.0001616,15.79410815,331.0245387027917,333.1932901823402,1 44758U 19074AX  26037.91671296  .00187390  00000+0  99668-3 0  9996,2 44758  53.0316 239.0351 0001616 189.3947 239.1973 15.79410815  5983
STARLINK-1060,44765,53.0343,0.0004642,16.10776001,241.64104317337387,247.78969931483698,1 44765U 19074BE  26037.83787193  .00727488  30086-3  71662-3 0  9992,2 44765  53.0343 277.2342 0004642 242.4825 117.5737 16.10776001344760
STARLINK-1063,44768,53.159,0.0001516,15.30156526,474.30589016767044,476.3838658730865,1 44768U 19074BH  26037.66670139  .00036456  00000+0  12386-2 0  9991,2 44768  53.1590   3.4949 0001516 102.8882 280.7398 15.30156526  5540
STARLINK-1067,44771,53.0549,0.000833,15.4962454,412.16254561641745,423.4846159439976,1 44771U 19074BL  26037.91671296  .00138135  00000+0  24182-2 0  9992,2 44771  53.0549 352.7315 0008330  97.6224  52.4468 15.49624540  5836
STARLINK-1068,44772,53.0546,0.0005504,15.5667359,393.56287274035003,401.02126505939486,1 44772U 19074BM  26037.91671296  .00112816  00000+0  15378-2 0  9998,2 44772  53.0546 329.7709 0005504 104.6161 155.8129 15.56673590  5899
STARLINK-1112,44925,53.0397,0.0002859,15.86366088,310.5680781110523,314.39377344101104,1 44925U 20001M   26037.91671296  .00260392  00000+0  98963-3 0  9995,2 44925  53.0397  39.3386 0002859  42.7623 103.3152 15.86366088  5925
STARLINK-1114,44927,53.0518,0.000617,15.45099209,426.8852907794162,435.28787267927055,1 44927U 20001P   26037.67904991  .00086086  00000+0  17790-2 0  9995,2 44927  53.0518 117.6075 0006170   7.1731 352.9362 15.45099209335296
STARLINK-1123,44930,53.0535,0.0001138,15.06366683,546.5255553403586,548.1017879132214,1 44930U 20001S   26037.27495107 -.00011291  00000+0 -74098-3 0  9992,2 44930  53.0535 127.6477 0001138  90.3233 269.7886 15.06366683335113
STARLINK-1144,44933,53.0312,0.0005334,16.08801166,246.59853074951116,253.66957030621415,1 44933U 20001V   26037.46810183  .00693860  26309-3  77734-3 0  9991,2 44933  53.0312  10.6634 0005334  81.6057 278.5581 16.08801166338064
STARLINK-1094,44941,53.1612,0.0001352,15.3019823,474.29378041106884,476.14692823967744,1 44941U 20001AD  26037.20175059  .00001227  00000+0  53558-4 0  9993,2 44941  53.1612 105.8214 0001352  82.6649 277.4505 15.30198230335417
STARLINK-1122,44949,53.1543,0.000134,15.29365128,476.79029728896785,478.62766401178214,1 44949U 20001AM  26036.57166899  .00006671  00000+0  24323-3 0  9997,2 44949  53.1543 108.7599 0001340  91.4642 268.6512 15.29365128335313
STARLINK-1080,44961,53.0523,0.0007514,15.43180262,431.6095744597669,441.85095698669556,1 44961U 20001AZ  26037.10608114  .00089673  00000+0  19756-2 0  9998,2 44961  53.0523  78.5231 0007514  18.4508 341.6768 15.43180262335797
STARLINK-1090,44968,53.0519,0.0001337,15.06404658,546.2713646824513,548.123199069425,1 44968U 20001BG  26037.11276552  .00008165  00000+0  56634-3 0  9997,2 44968  53.0519  88.3746 0001337 100.4372 259.6768 15.06404658335657
STARLINK-1132,45044,53.1586,0.0003434,15.38680015,447.6668442184882,452.35641669788765,1 45044U 20006A   26035.32950702  .00091023  00000+0  23288-2 0  9998,2 45044  53.1586  51.5685 0003434  79.6108 280.5283 15.38680015331789
STARLINK-1131,45047,53.1547,0.0001313,15.29341941,476.87809505315727,478.6784584048264,1 45047U 20006D   26037.91671296  .00075701  00000+0  26102-2 0  9999,2 45047  53.1547  63.8683 0001313  95.0602   9.6860 15.29341941  5789
STARLINK-1134,45048,53.0364,0.0007605,15.39692343,441.82782488296743,452.2088861787297,1 45048U 20006E   26037.57949708  .00084302  00000+0  20875-2 0  9996,2 45048  53.0364  25.8442 0007605  68.3806 291.8006 15.39692343332344
STARLINK-1156,45054,53.1521,0.0001594,15.28346535,479.6614665178804,481.84808121539027,1 45054U 20006L   26037.91671296  .00953674  00000+0  31494-1 0  9990,2 45054  53.1521  63.8481 0001594  80.7839 257.3085 15.28346535  5783
STARLINK-1159,45057,53.0485,0.0005261,15.71578204,350.8439819895748,357.9279426505291,1 45057U 20006P   26037.91671296  .00158073  00000+0  11877-2 0  9997,2 45057  53.0485  28.5507 0005261  28.5049  80.7311 15.71578204  5956
STARLINK-1166,45060,53.0536,0.0004164,15.4134283,439.3052186868499,444.9851496898409,1 45060U 20006S   26037.68856380  .00103432  00000+0  24187-2 0  9991,2 45060  53.0536  59.9581 0004164  38.4417 321.6883 15.41342830331872
STARLINK-1169,45061,53.1409,0.0001024,15.25733475,487.880679617474,489.2869840438334,1 45061U 20006T   26037.91671296  .00766486  00000+0  27508-1 0  9992,2 45061  53.1409  63.8527 0001024  86.8482  69.3576 15.25733475  5782
STARLINK-1171,45062,53.0492,0.0003733,15.51350566,410.2468244746733,415.3169245063673,1 45062U 20006U   26037.91671296  .00186216  00000+0  30481-2 0  9995,2 45062  53.0492  38.1822 0003733 298.0682  47.8093 15.51350566  5909
STARLINK-1133,45064,53.1583,0.0001166,15.30193164,474.4363773278819,476.0345837903478,1 45064U 20006W   26037.05309154  .00002806  00000+0  10686-3 0  9991,2 45064  53.1583  44.7491 0001166  88.1470 271.9664 15.30193164332036
STARLINK-1167,45071,53.1596,0.0001835,15.29353607,476.4853577435915,479.0014658547216,1 45071U 20006AD  26037.39046008  .00000731  00000+0  37663-4 0  9992,2 45071  53.1596  43.0498 0001835  72.2027 287.9174 15.29353607332088
STARLINK-1168,45072,53.1595,0.0001714,15.29344945,476.5941966126011,478.94440129188206,1 45072U 20006AE  26037.00815454  .00000925  00000+0  44390-4 0  9990,2 45072  53.1595  44.8853 0001714  79.2161 280.9032 15.29344945332029
STARLINK-1172,45074,53.1586,0.0001203,15.30206395,474.37151921161694,476.020431125442,1 45074U 20006AG  26037.02991669  .00006697  00000+0  23798-3 0  9997,2 45074  53.1586  44.8816 0001203  86.4502 273.6636 15.30206395332029
STARLINK-1153,45080,53.1576,0.0001314,15.29361635,476.8185600957959,478.6202791628739,1 45080U 20006AN  26037.44022243  .00012140  00000+0  43225-3 0  9990,2 45080  53.1576  42.7352 0001314  94.4654 265.6497 15.29361635332097
STARLINK-1151,45081,53.0532,0.001141,15.53116954,399.8893790676775,415.37450379202073,1 45081U 20006AP  26037.91671296  .00188856  00000+0  28943-2 0  9998,2 45081  53.0532  29.2417 0011410  40.0046 358.3990 15.53116954  5905
STARLINK-1185,45087,53.0907,0.0001631,15.15247304,519.1027450587408,521.3529916788029,1 45087U 20006AV  26037.91671296  .00127981  00000+0  66239-2 0  9996,2 45087  53.0907  24.5328 0001631 104.3334 155.6476 15.15247304  5789
STARLINK-1183,45088,53.0798,0.0001593,15.12440989,527.6581820103693,529.8587189008849,1 45088U 20006AW  26037.91671296  .00701450  00000+0  37168-1 0  9994,2 45088  53.0798  24.6668 0001593  90.0656 335.7779 15.12440989  5790
STARLINK-1152,45096,53.0436,0.0006723,15.34566668,457.6091487381882,466.806676507701,1 45096U 20006BE  26036.98310635  .00047231  00000+0  13920-2 0  9997,2 45096  53.0436 355.5640 0006723  80.8746 279.3016 15.34566668332710
